AQUA                    
1 27424U 02022A   26083.94164762  .00000999  00000+0  20897-3 0  9998
2 27424  98.4200  51.5874 0000973 117.1477 277.3648 14.62010474270961
CZ-4B R/B               
1 27432U 02024C   26083.87799054  .00000027  00000+0  36757-4 0  9994
2 27432  98.8807 137.2060 0049696 341.0636 192.3708 14.14550186231388
MIDORI II (ADEOS-II)    
1 27597U 02056A   26083.78466204  .00000304  00000+0  13713-3 0  9993
2 27597  98.7795  42.3690 0000951  25.7049 334.4180 14.29295919212451
H-2A R/B                
1 27601U 02056E   26083.92237381  .00000283  00000+0  11330-3 0  9996
2 27601  98.3229  43.7105 0071258 115.7393 313.3594 14.33770287216293
CZ-4B R/B               
1 28059U 03049C   26083.92500315  .00000357  00000+0  93386-4 0  9991
2 28059  98.6892  79.4292 0048038 183.8481 176.2352 14.55033390188812
CZ-2C R/B               
1 28222U 04012C   26083.63115189  .00054390  00000+0  52298-3 0  9995
2 28222  97.7186 150.3578 0013005 248.8931 111.0938 15.66309633206619
SL-16 R/B               
1 28353U 04021B   26083.73095085  .00000037  00000+0  44150-4 0  9991
2 28353  71.0003 200.9271 0004764 351.4891   8.6150 14.14593498124967
CZ-4B R/B               
1 28415U 04035C   26083.82860337  .00007571  00000+0  26533-3 0  9999
2 28415  97.3476 117.8907 0029970 274.9711  84.8108 15.29321685182225
CZ-2C R/B               
1 28480U 04046B   26083.98175073  .00000144  00000+0  68172-4 0  9991
2 28480  98.1977 358.0132 0140532 109.4893 252.1532 14.26997318110682
ARIANE 5 R/B            
1 28499U 04049H   26083.92512360  .00000765  00000+0  90993-4 0  9997
2 28499  98.2651 252.9550 0083015 302.1554  57.1625 14.85291957148055
CZ-2D R/B               
1 28738U 05024B   26083.77544829  .00044439  00000+0  51872-3 0  9993
2 28738  97.3588  99.4898 0003093 359.7671   0.3585 15.61504185142138
ALOS (DAICHI)           
1 28931U 06002A   26083.88805137  .00001324  00000+0  22976-3 0  9998
2 28931  98.1242  39.7700 0000756  98.5469 261.5822 14.69854515 75710
