CCSDS_OMM_VERS = 2.0
CREATION_DATE  = 
ORIGINATOR     = 

OBJECT_NAME    = AQUA
OBJECT_ID      = 2002-022A
CENTER_NAME    = EARTH
REF_FRAME      = TEME
TIME_SYSTEM    = UTC
MEAN_ELEMENT_THEORY = SGP/SGP4

EPOCH          = 2026-03-24T22:35:58.354368
MEAN_MOTION    = 14.62010474
ECCENTRICITY   = .00009739
INCLINATION    = 98.4200
RA_OF_ASC_NODE = 51.5874
ARG_OF_PERICENTER = 117.1477
MEAN_ANOMALY   = 277.3648

EPHEMERIS_TYPE = 0
CLASSIFICATION_TYPE = U
NORAD_CAT_ID   = 27424
ELEMENT_SET_NO = 999
REV_AT_EPOCH   = 27096
BSTAR          = .2089668E-3
MEAN_MOTION_DOT = .999E-5
MEAN_MOTION_DDOT = 0

CCSDS_OMM_VERS = 2.0
CREATION_DATE  = 
ORIGINATOR     = 

OBJECT_NAME    = CZ-4B R/B
OBJECT_ID      = 2002-024C
CENTER_NAME    = EARTH
REF_FRAME      = TEME
TIME_SYSTEM    = UTC
MEAN_ELEMENT_THEORY = SGP/SGP4

EPOCH          = 2026-03-24T21:04:18.382656
MEAN_MOTION    = 14.14550186
ECCENTRICITY   = .00496967
INCLINATION    = 98.8807
RA_OF_ASC_NODE = 137.2060
ARG_OF_PERICENTER = 341.0636
MEAN_ANOMALY   = 192.3708

EPHEMERIS_TYPE = 0
CLASSIFICATION_TYPE = U
NORAD_CAT_ID   = 27432
ELEMENT_SET_NO = 999
REV_AT_EPOCH   = 23138
BSTAR          = .36757477E-4
MEAN_MOTION_DOT = .27E-6
MEAN_MOTION_DDOT = 0

CCSDS_OMM_VERS = 2.0
CREATION_DATE  = 
ORIGINATOR     = 

OBJECT_NAME    = MIDORI II (ADEOS-II)
OBJECT_ID      = 2002-056A
CENTER_NAME    = EARTH
REF_FRAME      = TEME
TIME_SYSTEM    = UTC
MEAN_ELEMENT_THEORY = SGP/SGP4

EPOCH          = 2026-03-24T18:49:54.800256
MEAN_MOTION    = 14.29295919
ECCENTRICITY   = .00009511
INCLINATION    = 98.7795
RA_OF_ASC_NODE = 42.3690
ARG_OF_PERICENTER = 25.7049
MEAN_ANOMALY   = 334.4180

EPHEMERIS_TYPE = 0
CLASSIFICATION_TYPE = U
NORAD_CAT_ID   = 27597
ELEMENT_SET_NO = 999
REV_AT_EPOCH   = 21245
BSTAR          = .13713112E-3
MEAN_MOTION_DOT = .304E-5
MEAN_MOTION_DDOT = 0

CCSDS_OMM_VERS = 2.0
CREATION_DATE  = 
ORIGINATOR     = 

OBJECT_NAME    = H-2A R/B
OBJECT_ID      = 2002-056E
CENTER_NAME    = EARTH
REF_FRAME      = TEME
TIME_SYSTEM    = UTC
MEAN_ELEMENT_THEORY = SGP/SGP4

EPOCH          = 2026-03-24T22:08:13.097184
MEAN_MOTION    = 14.33770287
ECCENTRICITY   = .00712581
INCLINATION    = 98.3229
RA_OF_ASC_NODE = 43.7105
ARG_OF_PERICENTER = 115.7393
MEAN_ANOMALY   = 313.3594

EPHEMERIS_TYPE = 0
CLASSIFICATION_TYPE = U
NORAD_CAT_ID   = 27601
ELEMENT_SET_NO = 999
REV_AT_EPOCH   = 21629
BSTAR          = .11329614E-3
MEAN_MOTION_DOT = .283E-5
MEAN_MOTION_DDOT = 0

CCSDS_OMM_VERS = 2.0
CREATION_DATE  = 
ORIGINATOR     = 

OBJECT_NAME    = CZ-4B R/B
OBJECT_ID      = 2003-049C
CENTER_NAME    = EARTH
REF_FRAME      = TEME
TIME_SYSTEM    = UTC
MEAN_ELEMENT_THEORY = SGP/SGP4

EPOCH          = 2026-03-24T22:12:00.272160
MEAN_MOTION    = 14.55033390
ECCENTRICITY   = .00480389
INCLINATION    = 98.6892
RA_OF_ASC_NODE = 79.4292
ARG_OF_PERICENTER = 183.8481
MEAN_ANOMALY   = 176.2352

EPHEMERIS_TYPE = 0
CLASSIFICATION_TYPE = U
NORAD_CAT_ID   = 28059
ELEMENT_SET_NO = 999
REV_AT_EPOCH   = 18881
BSTAR          = .93385671E-4
MEAN_MOTION_DOT = .357E-5
MEAN_MOTION_DDOT = 0

CCSDS_OMM_VERS = 2.0
CREATION_DATE  = 
ORIGINATOR     = 

OBJECT_NAME    = CZ-2C R/B
OBJECT_ID      = 2004-012C
CENTER_NAME    = EARTH
REF_FRAME      = TEME
TIME_SYSTEM    = UTC
MEAN_ELEMENT_THEORY = SGP/SGP4

EPOCH          = 2026-03-24T15:08:51.523296
MEAN_MOTION    = 15.66309633
ECCENTRICITY   = .00130055
INCLINATION    = 97.7186
RA_OF_ASC_NODE = 150.3578
ARG_OF_PERICENTER = 248.8931
MEAN_ANOMALY   = 111.0938

EPHEMERIS_TYPE = 0
CLASSIFICATION_TYPE = U
NORAD_CAT_ID   = 28222
ELEMENT_SET_NO = 999
REV_AT_EPOCH   = 20661
BSTAR          = .52297572E-3
MEAN_MOTION_DOT = .5439E-3
MEAN_MOTION_DDOT = 0

CCSDS_OMM_VERS = 2.0
CREATION_DATE  = 
ORIGINATOR     = 

OBJECT_NAME    = SL-16 R/B
OBJECT_ID      = 2004-021B
CENTER_NAME    = EARTH
REF_FRAME      = TEME
TIME_SYSTEM    = UTC
MEAN_ELEMENT_THEORY = SGP/SGP4

EPOCH          = 2026-03-24T17:32:34.153440
MEAN_MOTION    = 14.14593498
ECCENTRICITY   = .00047647
INCLINATION    = 71.0003
RA_OF_ASC_NODE = 200.9271
ARG_OF_PERICENTER = 351.4891
MEAN_ANOMALY   = 8.6150

EPHEMERIS_TYPE = 0
CLASSIFICATION_TYPE = U
NORAD_CAT_ID   = 28353
ELEMENT_SET_NO = 999
REV_AT_EPOCH   = 12496
BSTAR          = .44149704E-4
MEAN_MOTION_DOT = .37E-6
MEAN_MOTION_DDOT = 0

CCSDS_OMM_VERS = 2.0
CREATION_DATE  = 
ORIGINATOR     = 

OBJECT_NAME    = CZ-4B R/B
OBJECT_ID      = 2004-035C
CENTER_NAME    = EARTH
REF_FRAME      = TEME
TIME_SYSTEM    = UTC
MEAN_ELEMENT_THEORY = SGP/SGP4

EPOCH          = 2026-03-24T19:53:11.331168
MEAN_MOTION    = 15.29321685
ECCENTRICITY   = .00299707
INCLINATION    = 97.3476
RA_OF_ASC_NODE = 117.8907
ARG_OF_PERICENTER = 274.9711
MEAN_ANOMALY   = 84.8108

EPHEMERIS_TYPE = 0
CLASSIFICATION_TYPE = U
NORAD_CAT_ID   = 28415
ELEMENT_SET_NO = 999
REV_AT_EPOCH   = 18222
BSTAR          = .26533333E-3
MEAN_MOTION_DOT = .7571E-4
MEAN_MOTION_DDOT = 0

CCSDS_OMM_VERS = 2.0
CREATION_DATE  = 
ORIGINATOR     = 

OBJECT_NAME    = CZ-2C R/B
OBJECT_ID      = 2004-046B
CENTER_NAME    = EARTH
REF_FRAME      = TEME
TIME_SYSTEM    = UTC
MEAN_ELEMENT_THEORY = SGP/SGP4

EPOCH          = 2026-03-24T23:33:43.263072
MEAN_MOTION    = 14.26997318
ECCENTRICITY   = .01405324
INCLINATION    = 98.1977
RA_OF_ASC_NODE = 358.0132
ARG_OF_PERICENTER = 109.4893
MEAN_ANOMALY   = 252.1532

EPHEMERIS_TYPE = 0
CLASSIFICATION_TYPE = U
NORAD_CAT_ID   = 28480
ELEMENT_SET_NO = 999
REV_AT_EPOCH   = 11068
BSTAR          = .68172485E-4
MEAN_MOTION_DOT = .144E-5
MEAN_MOTION_DDOT = 0

CCSDS_OMM_VERS = 2.0
CREATION_DATE  = 
ORIGINATOR     = 

OBJECT_NAME    = ARIANE 5 R/B
OBJECT_ID      = 2004-049H
CENTER_NAME    = EARTH
REF_FRAME      = TEME
TIME_SYSTEM    = UTC
MEAN_ELEMENT_THEORY = SGP/SGP4

EPOCH          = 2026-03-24T22:12:10.679040
MEAN_MOTION    = 14.85291957
ECCENTRICITY   = .00830158
INCLINATION    = 98.2651
RA_OF_ASC_NODE = 252.9550
ARG_OF_PERICENTER = 302.1554
MEAN_ANOMALY   = 57.1625

EPHEMERIS_TYPE = 0
CLASSIFICATION_TYPE = U
NORAD_CAT_ID   = 28499
ELEMENT_SET_NO = 999
REV_AT_EPOCH   = 14805
BSTAR          = .90993271E-4
MEAN_MOTION_DOT = .765E-5
MEAN_MOTION_DDOT = 0

CCSDS_OMM_VERS = 2.0
CREATION_DATE  = 
ORIGINATOR     = 

OBJECT_NAME    = CZ-2D R/B
OBJECT_ID      = 2005-024B
CENTER_NAME    = EARTH
REF_FRAME      = TEME
TIME_SYSTEM    = UTC
MEAN_ELEMENT_THEORY = SGP/SGP4

EPOCH          = 2026-03-24T18:36:38.732256
MEAN_MOTION    = 15.61504185
ECCENTRICITY   = .00030939
INCLINATION    = 97.3588
RA_OF_ASC_NODE = 99.4898
ARG_OF_PERICENTER = 359.7671
MEAN_ANOMALY   = 0.3585

EPHEMERIS_TYPE = 0
CLASSIFICATION_TYPE = U
NORAD_CAT_ID   = 28738
ELEMENT_SET_NO = 999
REV_AT_EPOCH   = 14213
BSTAR          = .51871852E-3
MEAN_MOTION_DOT = .44439E-3
MEAN_MOTION_DDOT = 0

CCSDS_OMM_VERS = 2.0
CREATION_DATE  = 
ORIGINATOR     = 

OBJECT_NAME    = ALOS (DAICHI)
OBJECT_ID      = 2006-002A
CENTER_NAME    = EARTH
REF_FRAME      = TEME
TIME_SYSTEM    = UTC
MEAN_ELEMENT_THEORY = SGP/SGP4

EPOCH          = 2026-03-24T21:18:47.638368
MEAN_MOTION    = 14.69854515
ECCENTRICITY   = .00007567
INCLINATION    = 98.1242
RA_OF_ASC_NODE = 39.7700
ARG_OF_PERICENTER = 98.5469
MEAN_ANOMALY   = 261.5822

EPHEMERIS_TYPE = 0
CLASSIFICATION_TYPE = U
NORAD_CAT_ID   = 28931
ELEMENT_SET_NO = 999
REV_AT_EPOCH   = 7571
BSTAR          = .22975554E-3
MEAN_MOTION_DOT = .1324E-4
MEAN_MOTION_DDOT = 0

